STARLINK-1338           
1 45532U 20025B   26157.31500860  .00068698  00000+0  61545-3 0  9992
2 45532  53.0451  11.6554 0003088 101.5371 258.5992 15.67711650339259
STARLINK-1350           
1 45535U 20025E   26158.18795259  .00011571  00000+0  31238-3 0  9993
2 45535  53.0728 332.1220 0001389  84.5190 275.5972 15.38247606339925
STARLINK-1362           
1 45538U 20025H   26158.41112618 -.00159391  00000+0 -43977-2 0  9991
2 45538  53.1572  42.2591 0003581 156.2649 203.8520 15.37156852338943
STARLINK-1368           
1 45540U 20025K   26157.96918456  .00054292  00000+0  14601-2 0  9991
2 45540  53.1561  44.6988 0004071 132.0728 228.0623 15.37378113338865
STARLINK-1371           
1 45542U 20025M   26158.30467122  .00095261  00000+0  10601-2 0  9998
2 45542  53.0452  16.4370 0004461 135.8193 224.3177 15.62104241339273
STARLINK-1372           
1 45543U 20025N   26158.38303023  .00040675  00000+0  10802-2 0  9998
2 45543  53.1551  42.2558 0002855 125.9581 234.1688 15.37899955338030
STARLINK-1373           
1 45544U 20025P   26158.29053838  .00060405  00000+0  49930-3 0  9993
2 45544  53.0454  12.0990 0002750  76.0287 284.1035 15.69729592339339
STARLINK-1327           
1 45555U 20025AA  26157.82172856  .00061962  00000+0  56970-3 0  9996
2 45555  53.0419 351.5570 0003909  74.2108 285.9339 15.67110795339575
STARLINK-1356           
1 45564U 20025AK  26158.28908080  .00047080  00000+0  47113-3 0  9997
2 45564  53.0440   2.4033 0000184  43.8873 316.2156 15.65118339339461
STARLINK-1357           
1 45565U 20025AL  26157.75038416  .00072237  00000+0  60449-3 0  9995
2 45565  53.0455 321.8142 0005137 118.0243 242.1294 15.69348264339990
STARLINK-1361           
1 45567U 20025AN  26158.47564424  .00090981  00000+0  99699-3 0  9995
2 45567  53.0438 359.7758 0001422 265.5016  94.5835 15.62529943339522
STARLINK-1366           
1 45569U 20025AQ  26158.57591491  .01821446  11947-4  62720-3 0  9993
2 45569  53.0258 300.3562 0012182 309.4775  50.5186 16.24477984340343
STARLINK-1376           
1 45570U 20025AR  26158.10008574  .00027383  00000+0  72600-3 0  9997
2 45570  53.1560  19.9870 0003856 102.3102 257.8334 15.38146312339223
STARLINK-1320           
1 45572U 20025AT  26158.50004630  .00150546  00000+0  56973-3 0  9995
2 45572  53.0412 257.1785 0008285 334.5009  55.1559 15.86709469  6003
STARLINK-1321           
1 45573U 20025AU  26158.50004630  .00137937  00000+0  14406-2 0  9999
2 45573  53.0423 343.5551 0002139 162.1430 281.1208 15.63560617  5985
STARLINK-1331           
1 45578U 20025AZ  26158.44476999  .00089396  00000+0  95206-3 0  9991
2 45578  53.0467 350.7283 0002615 109.0513 251.0784 15.63267137339651
STARLINK-1333           
1 45580U 20025BB  26158.34148718  .00036836  00000+0  10680-2 0  9991
2 45580  53.1582  20.3529 0002123 153.0947 207.0167 15.35214464339245
STARLINK-1335           
1 45581U 20025BC  26158.30696424  .00049385  00000+0  13499-2 0  9994
2 45581  53.1567  17.2466 0005036 122.7911 237.3579 15.36912770339276
STARLINK-1337           
1 45582U 20025BD  26158.49930446  .00073631  00000+0  50007-3 0  9998
2 45582  53.0457 339.8494 0004589 107.0214 253.1308 15.74295273339799
STARLINK-1347           
1 45586U 20025BH  26157.72319886  .00069733  00000+0  60614-3 0  9999
2 45586  53.0382 314.1465 0002160 131.1358 228.9844 15.68448920340085
STARLINK-1364           
1 45589U 20025BL  26158.24088830  .00058771  00000+0  49525-3 0  9990
2 45589  53.0434 348.2917 0000384 182.1885 177.9130 15.69275810339652
STARLINK-1365           
1 45590U 20025BM  26158.50004630  .00141794  00000+0  17622-2 0  9997
2 45590  53.0457  21.1294 0002606 107.3476 320.1177 15.59030278  5972
STARLINK-1443           
1 45660U 20035D   26157.33348380  .00029532  00000+0  93942-3 0  9994
2 45660  53.1332  13.7624 0002893  96.6594 126.6964 15.32381092  5872
STARLINK-1446           
1 45663U 20035G   26158.07802477  .00026778  00000+0  51822-3 0  9991
2 45663  53.0243 293.3770 0002145 176.2141 183.8882 15.47569842333499
STARLINK-1448           
1 45665U 20035J   26158.45938668  .00061513  00000+0  54123-3 0  9990
2 45665  53.0443 334.5720 0004691  95.9693 264.1858 15.68193285332945
STARLINK-1451           
1 45668U 20035M   26156.91453930  .00038500  00000+0  20927-2 0  9990
2 45668  53.0526  26.4318 0002299  98.7126 261.4127 15.14145037332092
STARLINK-1452           
1 45669U 20035N   26158.50004630  .00094668  00000+0  11940-2 0  9999
2 45669  53.0254 309.4642 0003419 308.1526 241.5664 15.58839234  5866
STARLINK-1453           
1 45670U 20035P   26158.49103045  .00063535  00000+0  54752-3 0  9997
2 45670  53.0399 294.7071 0001618 285.4140  74.6697 15.68698422333406
STARLINK-1454           
1 45671U 20035Q   26158.20844733  .00060301  00000+0  56555-3 0  9994
2 45671  53.0438 337.0289 0002114  47.1416 312.9776 15.66634732332883
STARLINK-1456           
1 45673U 20035S   26157.66494723  .00057251  00000+0  56204-3 0  9996
2 45673  53.0426 334.2737 0004026 152.1608 207.9623 15.65509844332892
