OBJECT_NAME,OBJECT_ID,EPOCH,MEAN_MOTION,ECCENTRICITY,INCLINATION,RA_OF_ASC_NODE,ARG_OF_PERICENTER,MEAN_ANOMALY,EPHEMERIS_TYPE,CLASSIFICATION_TYPE,NORAD_CAT_ID,ELEMENT_SET_NO,REV_AT_EPOCH,BSTAR,MEAN_MOTION_DOT,MEAN_MOTION_DDOT
STARLINK-1338,2020-025B,2026-06-06T07:33:36.743040,15.67711650,.00030889,53.0451,11.6554,101.5371,258.5992,0,U,45532,999,33925,.61545483E-3,.68698E-3,0
STARLINK-1350,2020-025E,2026-06-07T04:30:39.103776,15.38247606,.0001389,53.0728,332.1220,84.5190,275.5972,0,U,45535,999,33992,.31238E-3,.11571E-3,0
STARLINK-1362,2020-025H,2026-06-07T09:52:01.301952,15.37156852,.0003581,53.1572,42.2591,156.2649,203.8520,0,U,45538,999,33894,-.43977E-2,-.159391E-2,0
STARLINK-1368,2020-025K,2026-06-06T23:15:37.545984,15.37378113,.0004071,53.1561,44.6988,132.0728,228.0623,0,U,45540,999,33886,.14601E-2,.54292E-3,0
STARLINK-1371,2020-025M,2026-06-07T07:18:43.593408,15.62104241,.0004461,53.0452,16.4370,135.8193,224.3177,0,U,45542,999,33927,.10601E-2,.95261E-3,0
STARLINK-1372,2020-025N,2026-06-07T09:11:33.811872,15.37899955,.0002855,53.1551,42.2558,125.9581,234.1688,0,U,45543,999,33803,.10802E-2,.40675E-3,0
STARLINK-1373,2020-025P,2026-06-07T06:58:22.516032,15.69729592,.000275,53.0454,12.0990,76.0287,284.1035,0,U,45544,999,33933,.4993E-3,.60405E-3,0
STARLINK-1327,2020-025AA,2026-06-06T19:43:17.347584,15.67110795,.00039093,53.0419,351.5570,74.2108,285.9339,0,U,45555,999,33957,.56969623E-3,.61962E-3,0
STARLINK-1356,2020-025AK,2026-06-07T06:56:16.581120,15.65118339,.0000184,53.0440,2.4033,43.8873,316.2156,0,U,45564,999,33946,.47113E-3,.4708E-3,0
STARLINK-1357,2020-025AL,2026-06-06T18:00:33.191424,15.69348264,.0005137,53.0455,321.8142,118.0243,242.1294,0,U,45565,999,33999,.6044893E-3,.72237E-3,0
STARLINK-1361,2020-025AN,2026-06-07T11:24:55.662336,15.62529943,.0001422,53.0438,359.7758,265.5016,94.5835,0,U,45567,999,33952,.99699E-3,.90981E-3,0
STARLINK-1366,2020-025AQ,2026-06-07T13:49:19.048224,16.24477984,.0012182,53.0258,300.3562,309.4775,50.5186,0,U,45569,999,34034,.6272E-3,.1821446E-1,.11947E-4
STARLINK-1376,2020-025AR,2026-06-07T02:24:07.407936,15.38146312,.0003856,53.1560,19.9870,102.3102,257.8334,0,U,45570,999,33922,.726E-3,.27383E-3,0
STARLINK-1320,2020-025AT,2026-06-07T12:00:04.000320,15.86709469,.0008285,53.0412,257.1785,334.5009,55.1559,0,U,45572,999,600,.56973E-3,.150546E-2,0
STARLINK-1321,2020-025AU,2026-06-07T12:00:04.000320,15.63560617,.0002139,53.0423,343.5551,162.1430,281.1208,0,U,45573,999,598,.14406E-2,.137937E-2,0
STARLINK-1331,2020-025AZ,2026-06-07T10:40:28.127136,15.63267137,.0002615,53.0467,350.7283,109.0513,251.0784,0,U,45578,999,33965,.95206E-3,.89396E-3,0
STARLINK-1333,2020-025BB,2026-06-07T08:11:44.492352,15.35214464,.0002123,53.1582,20.3529,153.0947,207.0167,0,U,45580,999,33924,.1068E-2,.36836E-3,0
STARLINK-1335,2020-025BC,2026-06-07T07:22:01.710336,15.36912770,.0005036,53.1567,17.2466,122.7911,237.3579,0,U,45581,999,33927,.13499E-2,.49385E-3,0
STARLINK-1337,2020-025BD,2026-06-07T11:58:59.905344,15.74295273,.0004589,53.0457,339.8494,107.0214,253.1308,0,U,45582,999,33979,.50007E-3,.73631E-3,0
STARLINK-1347,2020-025BH,2026-06-06T17:21:24.381504,15.68448920,.00021607,53.0382,314.1465,131.1358,228.9844,0,U,45586,999,34008,.60614019E-3,.69733E-3,0
STARLINK-1364,2020-025BL,2026-06-07T05:46:52.749120,15.69275810,.0000384,53.0434,348.2917,182.1885,177.9130,0,U,45589,999,33965,.49525E-3,.58771E-3,0
STARLINK-1365,2020-025BM,2026-06-07T12:00:04.000320,15.59030278,.0002606,53.0457,21.1294,107.3476,320.1177,0,U,45590,999,597,.17622E-2,.141794E-2,0
STARLINK-1443,2020-035D,2026-06-06T08:00:13.000320,15.32381092,.00028932,53.1332,13.7624,96.6594,126.6964,0,U,45660,999,587,.93941615E-3,.29532E-3,0
STARLINK-1446,2020-035G,2026-06-07T01:52:21.340128,15.47569842,.0002145,53.0243,293.3770,176.2141,183.8882,0,U,45663,999,33349,.51822E-3,.26778E-3,0
STARLINK-1448,2020-035J,2026-06-07T11:01:31.009152,15.68193285,.0004691,53.0443,334.5720,95.9693,264.1858,0,U,45665,999,33294,.54123E-3,.61513E-3,0
STARLINK-1451,2020-035M,2026-06-05T21:56:56.195520,15.14145037,.00022997,53.0526,26.4318,98.7126,261.4127,0,U,45668,999,33209,.20927163E-2,.385E-3,0
STARLINK-1452,2020-035N,2026-06-07T12:00:04.000320,15.58839234,.0003419,53.0254,309.4642,308.1526,241.5664,0,U,45669,999,586,.1194E-2,.94668E-3,0
STARLINK-1453,2020-035P,2026-06-07T11:47:05.030880,15.68698422,.0001618,53.0399,294.7071,285.4140,74.6697,0,U,45670,999,33340,.54752E-3,.63535E-3,0
STARLINK-1454,2020-035Q,2026-06-07T05:00:09.849312,15.66634732,.0002114,53.0438,337.0289,47.1416,312.9776,0,U,45671,999,33288,.56555E-3,.60301E-3,0
STARLINK-1456,2020-035S,2026-06-06T15:57:31.440672,15.65509844,.0004026,53.0426,334.2737,152.1608,207.9623,0,U,45673,999,33289,.56204E-3,.57251E-3,0
